[{"OBJECT_NAME":"ONEWEB-0183","OBJECT_ID":"2021-031K","EPOCH":"2026-03-04T05:24:21.054816","MEAN_MOTION":13.14501666,"ECCENTRICITY":0.0001602,"INCLINATION":87.8997,"RA_OF_ASC_NODE":310.6481,"ARG_OF_PERICENTER":71.8075,"MEAN_ANOMALY":288.3229,"EPHEMERIS_TYPE":0,"CLASSIFICATION_TYPE":"U","NORAD_CAT_ID":48219,"ELEMENT_SET_NO":999,"REV_AT_EPOCH":23453,"BSTAR":0.00051556,"MEAN_MOTION_DOT":2.04e-6,"MEAN_MOTION_DDOT":0},{"OBJECT_NAME":"ONEWEB-0185","OBJECT_ID":"2021-031L","EPOCH":"2026-03-04T04:12:24.320736","MEAN_MOTION":13.14501279,"ECCENTRICITY":0.0001888,"INCLINATION":87.8998,"RA_OF_ASC_NODE":310.6437,"ARG_OF_PERICENTER":69.4897,"MEAN_ANOMALY":290.6435,"EPHEMERIS_TYPE":0,"CLASSIFICATION_TYPE":"U","NORAD_CAT_ID":48220,"ELEMENT_SET_NO":999,"REV_AT_EPOCH":23445,"BSTAR":-0.00047608,"MEAN_MOTION_DOT":-1.64e-6,"MEAN_MOTION_DDOT":0},{"OBJECT_NAME":"ONEWEB-0187","OBJECT_ID":"2021-031M","EPOCH":"2026-03-04T11:02:06.967104","MEAN_MOTION":13.14501617,"ECCENTRICITY":0.0001902,"INCLINATION":87.8988,"RA_OF_ASC_NODE":310.6195,"ARG_OF_PERICENTER":76.5332,"MEAN_ANOMALY":283.601,"EPHEMERIS_TYPE":0,"CLASSIFICATION_TYPE":"U","NORAD_CAT_ID":48221,"ELEMENT_SET_NO":999,"REV_AT_EPOCH":23450,"BSTAR":0.00017048,"MEAN_MOTION_DOT":7.6e-7,"MEAN_MOTION_DDOT":0},{"OBJECT_NAME":"ONEWEB-0192","OBJECT_ID":"2021-031N","EPOCH":"2026-03-04T04:50:05.952192","MEAN_MOTION":13.14502593,"ECCENTRICITY":0.0001693,"INCLINATION":87.8985,"RA_OF_ASC_NODE":310.66,"ARG_OF_PERICENTER":83.7154,"MEAN_ANOMALY":276.4168,"EPHEMERIS_TYPE":0,"CLASSIFICATION_TYPE":"U","NORAD_CAT_ID":48222,"ELEMENT_SET_NO":999,"REV_AT_EPOCH":23438,"BSTAR":0.00071713,"MEAN_MOTION_DOT":2.79e-6,"MEAN_MOTION_DDOT":0},{"OBJECT_NAME":"ONEWEB-0219","OBJECT_ID":"2021-031P","EPOCH":"2026-03-04T04:20:24.765216","MEAN_MOTION":13.14502586,"ECCENTRICITY":0.0001849,"INCLINATION":87.8998,"RA_OF_ASC_NODE":310.6488,"ARG_OF_PERICENTER":75.5742,"MEAN_ANOMALY":284.5592,"EPHEMERIS_TYPE":0,"CLASSIFICATION_TYPE":"U","NORAD_CAT_ID":48223,"ELEMENT_SET_NO":999,"REV_AT_EPOCH":23458,"BSTAR":-0.00018957,"MEAN_MOTION_DOT":-5.7e-7,"MEAN_MOTION_DDOT":0},{"OBJECT_NAME":"ONEWEB-0202","OBJECT_ID":"2021-031Q","EPOCH":"2026-03-04T05:42:37.756800","MEAN_MOTION":13.14505059,"ECCENTRICITY":0.0002168,"INCLINATION":87.8996,"RA_OF_ASC_NODE":310.646,"ARG_OF_PERICENTER":95.0598,"MEAN_ANOMALY":265.078,"EPHEMERIS_TYPE":0,"CLASSIFICATION_TYPE":"U","NORAD_CAT_ID":48224,"ELEMENT_SET_NO":999,"REV_AT_EPOCH":23457,"BSTAR":-0.00027802,"MEAN_MOTION_DOT":-9.0e-7,"MEAN_MOTION_DDOT":0},{"OBJECT_NAME":"ONEWEB-0204","OBJECT_ID":"2021-031R","EPOCH":"2026-03-04T04:42:06.571296","MEAN_MOTION":13.14503304,"ECCENTRICITY":0.0001596,"INCLINATION":87.8997,"RA_OF_ASC_NODE":310.6483,"ARG_OF_PERICENTER":69.6267,"MEAN_ANOMALY":290.5034,"EPHEMERIS_TYPE":0,"CLASSIFICATION_TYPE":"U","NORAD_CAT_ID":48225,"ELEMENT_SET_NO":999,"REV_AT_EPOCH":23446,"BSTAR":0.00035395,"MEAN_MOTION_DOT":1.44e-6,"MEAN_MOTION_DDOT":0},{"OBJECT_NAME":"ONEWEB-0205","OBJECT_ID":"2021-031S","EPOCH":"2026-03-04T05:56:19.347360","MEAN_MOTION":13.14502913,"ECCENTRICITY":0.0001799,"INCLINATION":87.8999,"RA_OF_ASC_NODE":310.6305,"ARG_OF_PERICENTER":76.8221,"MEAN_ANOMALY":283.3109,"EPHEMERIS_TYPE":0,"CLASSIFICATION_TYPE":"U","NORAD_CAT_ID":48226,"ELEMENT_SET_NO":999,"REV_AT_EPOCH":23448,"BSTAR":-0.00051058,"MEAN_MOTION_DOT":-1.77e-6,"MEAN_MOTION_DDOT":0},{"OBJECT_NAME":"ONEWEB-0206","OBJECT_ID":"2021-031T","EPOCH":"2026-03-04T05:17:30.551136","MEAN_MOTION":13.14502778,"ECCENTRICITY":0.0001459,"INCLINATION":87.9008,"RA_OF_ASC_NODE":310.6353,"ARG_OF_PERICENTER":86.7245,"MEAN_ANOMALY":273.4051,"EPHEMERIS_TYPE":0,"CLASSIFICATION_TYPE":"U","NORAD_CAT_ID":48227,"ELEMENT_SET_NO":999,"REV_AT_EPOCH":23443,"BSTAR":0.00043779,"MEAN_MOTION_DOT":1.75e-6,"MEAN_MOTION_DDOT":0},{"OBJECT_NAME":"ONEWEB-0182","OBJECT_ID":"2021-031U","EPOCH":"2026-03-04T05:10:39.137664","MEAN_MOTION":13.14502043,"ECCENTRICITY":0.0001561,"INCLINATION":87.8993,"RA_OF_ASC_NODE":310.6498,"ARG_OF_PERICENTER":71.5083,"MEAN_ANOMALY":288.6216,"EPHEMERIS_TYPE":0,"CLASSIFICATION_TYPE":"U","NORAD_CAT_ID":48228,"ELEMENT_SET_NO":999,"REV_AT_EPOCH":23464,"BSTAR":0.00083828,"MEAN_MOTION_DOT":3.24e-6,"MEAN_MOTION_DDOT":0},{"OBJECT_NAME":"ONEWEB-0186","OBJECT_ID":"2021-031V","EPOCH":"2026-03-04T05:26:38.594112","MEAN_MOTION":13.14502639,"ECCENTRICITY":0.0001742,"INCLINATION":87.9,"RA_OF_ASC_NODE":310.6345,"ARG_OF_PERICENTER":78.6551,"MEAN_ANOMALY":281.4775,"EPHEMERIS_TYPE":0,"CLASSIFICATION_TYPE":"U","NORAD_CAT_ID":48229,"ELEMENT_SET_NO":999,"REV_AT_EPOCH":23459,"BSTAR":0.00028827,"MEAN_MOTION_DOT":1.2e-6,"MEAN_MOTION_DDOT":0},{"OBJECT_NAME":"ONEWEB-0181","OBJECT_ID":"2021-031W","EPOCH":"2026-03-04T04:54:40.127040","MEAN_MOTION":13.14501706,"ECCENTRICITY":0.0001847,"INCLINATION":87.8986,"RA_OF_ASC_NODE":310.6813,"ARG_OF_PERICENTER":81.614,"MEAN_ANOMALY":278.5199,"EPHEMERIS_TYPE":0,"CLASSIFICATION_TYPE":"U","NORAD_CAT_ID":48230,"ELEMENT_SET_NO":999,"REV_AT_EPOCH":23444,"BSTAR":0.00065133,"MEAN_MOTION_DOT":2.54e-6,"MEAN_MOTION_DDOT":0},{"OBJECT_NAME":"ONEWEB-0188","OBJECT_ID":"2021-031X","EPOCH":"2026-03-04T05:49:28.256160","MEAN_MOTION":13.14502079,"ECCENTRICITY":0.0001669,"INCLINATION":87.8988,"RA_OF_ASC_NODE":310.6718,"ARG_OF_PERICENTER":78.7026,"MEAN_ANOMALY":281.4291,"EPHEMERIS_TYPE":0,"CLASSIFICATION_TYPE":"U","NORAD_CAT_ID":48231,"ELEMENT_SET_NO":999,"REV_AT_EPOCH":23435,"BSTAR":-0.00053791,"MEAN_MOTION_DOT":-1.87e-6,"MEAN_MOTION_DDOT":0},{"OBJECT_NAME":"ONEWEB-0220","OBJECT_ID":"2021-031Y","EPOCH":"2026-03-04T04:56:57.116832","MEAN_MOTION":13.14501825,"ECCENTRICITY":0.0001834,"INCLINATION":87.8998,"RA_OF_ASC_NODE":310.6379,"ARG_OF_PERICENTER":74.4987,"MEAN_ANOMALY":285.6345,"EPHEMERIS_TYPE":0,"CLASSIFICATION_TYPE":"U","NORAD_CAT_ID":48232,"ELEMENT_SET_NO":999,"REV_AT_EPOCH":23461,"BSTAR":0.00069618,"MEAN_MOTION_DOT":2.71e-6,"MEAN_MOTION_DDOT":0},{"OBJECT_NAME":"ONEWEB-0165","OBJECT_ID":"2021-031Z","EPOCH":"2026-03-04T05:38:03.156000","MEAN_MOTION":13.14501904,"ECCENTRICITY":0.0001954,"INCLINATION":87.8999,"RA_OF_ASC_NODE":310.6489,"ARG_OF_PERICENTER":88.7395,"MEAN_ANOMALY":271.3958,"EPHEMERIS_TYPE":0,"CLASSIFICATION_TYPE":"U","NORAD_CAT_ID":48233,"ELEMENT_SET_NO":999,"REV_AT_EPOCH":23457,"BSTAR":-0.00034735,"MEAN_MOTION_DOT":-1.16e-6,"MEAN_MOTION_DDOT":0},{"OBJECT_NAME":"ONEWEB-0199","OBJECT_ID":"2021-031AA","EPOCH":"2026-03-04T05:15:12.965184","MEAN_MOTION":13.14501629,"ECCENTRICITY":0.0001497,"INCLINATION":87.9,"RA_OF_ASC_NODE":310.6337,"ARG_OF_PERICENTER":82.9713,"MEAN_ANOMALY":277.1587,"EPHEMERIS_TYPE":0,"CLASSIFICATION_TYPE":"U","NORAD_CAT_ID":48234,"ELEMENT_SET_NO":999,"REV_AT_EPOCH":23447,"BSTAR":0.00060996,"MEAN_MOTION_DOT":2.39e-6,"MEAN_MOTION_DDOT":0},{"OBJECT_NAME":"ONEWEB-0203","OBJECT_ID":"2021-031AB","EPOCH":"2026-03-04T05:01:30.198720","MEAN_MOTION":13.14498828,"ECCENTRICITY":0.0001597,"INCLINATION":87.9003,"RA_OF_ASC_NODE":310.6349,"ARG_OF_PERICENTER":86.1547,"MEAN_ANOMALY":273.9765,"EPHEMERIS_TYPE":0,"CLASSIFICATION_TYPE":"U","NORAD_CAT_ID":48235,"ELEMENT_SET_NO":999,"REV_AT_EPOCH":23448,"BSTAR":0.00081015,"MEAN_MOTION_DOT":3.13e-6,"MEAN_MOTION_DDOT":0}]
