ONEWEB-0183             
1 48219U 21031K   26063.22524369  .00000204  00000+0  51556-3 0  9991
2 48219  87.8997 310.6481 0001602  71.8075 288.3229 13.14501666234538
ONEWEB-0185             
1 48220U 21031L   26063.17528149 -.00000164  00000+0 -47608-3 0  9997
2 48220  87.8998 310.6437 0001888  69.4897 290.6435 13.14501279234459
ONEWEB-0187             
1 48221U 21031M   26063.45980286  .00000076  00000+0  17048-3 0  9998
2 48221  87.8988 310.6195 0001902  76.5332 283.6010 13.14501617234503
ONEWEB-0192             
1 48222U 21031N   26063.20145778  .00000279  00000+0  71713-3 0  9995
2 48222  87.8985 310.6600 0001693  83.7154 276.4168 13.14502593234385
ONEWEB-0219             
1 48223U 21031P   26063.18084219 -.00000057  00000+0 -18957-3 0  9992
2 48223  87.8998 310.6488 0001849  75.5742 284.5592 13.14502586234584
ONEWEB-0202             
1 48224U 21031Q   26063.23793700 -.00000090  00000+0 -27802-3 0  9997
2 48224  87.8996 310.6460 0002168  95.0598 265.0780 13.14505059234574
ONEWEB-0204             
1 48225U 21031R   26063.19590939  .00000144  00000+0  35395-3 0  9996
2 48225  87.8997 310.6483 0001596  69.6267 290.5034 13.14503304234469
ONEWEB-0205             
1 48226U 21031S   26063.24744615 -.00000177  00000+0 -51058-3 0  9997
2 48226  87.8999 310.6305 0001799  76.8221 283.3109 13.14502913234480
ONEWEB-0206             
1 48227U 21031T   26063.22049249  .00000175  00000+0  43779-3 0  9994
2 48227  87.9008 310.6353 0001459  86.7245 273.4051 13.14502778234435
ONEWEB-0182             
1 48228U 21031U   26063.21573076  .00000324  00000+0  83828-3 0  9999
2 48228  87.8993 310.6498 0001561  71.5083 288.6216 13.14502043234643
ONEWEB-0186             
1 48229U 21031V   26063.22683558  .00000120  00000+0  28827-3 0  9990
2 48229  87.9000 310.6345 0001742  78.6551 281.4775 13.14502639234590
ONEWEB-0181             
1 48230U 21031W   26063.20463110  .00000254  00000+0  65133-3 0  9999
2 48230  87.8986 310.6813 0001847  81.6140 278.5199 13.14501706234443
ONEWEB-0188             
1 48231U 21031X   26063.24268815 -.00000187  00000+0 -53791-3 0  9993
2 48231  87.8988 310.6718 0001669  78.7026 281.4291 13.14502079234352
ONEWEB-0220             
1 48232U 21031Y   26063.20621663  .00000271  00000+0  69618-3 0  9991
2 48232  87.8998 310.6379 0001834  74.4987 285.6345 13.14501825234613
ONEWEB-0165             
1 48233U 21031Z   26063.23475875 -.00000116  00000+0 -34735-3 0  9999
2 48233  87.8999 310.6489 0001954  88.7395 271.3958 13.14501904234576
ONEWEB-0199             
1 48234U 21031AA  26063.21890006  .00000239  00000+0  60996-3 0  9997
2 48234  87.9000 310.6337 0001497  82.9713 277.1587 13.14501629234470
ONEWEB-0203             
1 48235U 21031AB  26063.20937730  .00000313  00000+0  81015-3 0  9991
2 48235  87.9003 310.6349 0001597  86.1547 273.9765 13.14498828234488
